STARLINK-30704
1 57946U 23148M   25334.05732960  .00001325  00000+0  56861-4 0  9998
2 57946  53.1600 204.2305 0001369  81.7325 278.3831 15.30197965122068